[{"OBJECT_NAME":"OBJECT F","OBJECT_ID":"2023-072F","EPOCH":"2026-03-09T23:31:37.259904","MEAN_MOTION":15.29470958,"ECCENTRICITY":0.00062878,"INCLINATION":97.5173,"RA_OF_ASC_NODE":265.798,"ARG_OF_PERICENTER":19.0017,"MEAN_ANOMALY":341.1456,"EPHEMERIS_TYPE":0,"CLASSIFICATION_TYPE":"U","NORAD_CAT_ID":56748,"ELEMENT_SET_NO":999,"REV_AT_EPOCH":15460,"BSTAR":0.00043416252,"MEAN_MOTION_DOT":0.00012341,"MEAN_MOTION_DDOT":0},{"OBJECT_NAME":"STARLINK-36476","OBJECT_ID":"2026-002K","EPOCH":"2026-03-09T23:39:28.575360","MEAN_MOTION":15.27616726,"ECCENTRICITY":0.00017907,"INCLINATION":43.0011,"RA_OF_ASC_NODE":323.6393,"ARG_OF_PERICENTER":269.748,"MEAN_ANOMALY":90.3166,"EPHEMERIS_TYPE":0,"CLASSIFICATION_TYPE":"U","NORAD_CAT_ID":67314,"ELEMENT_SET_NO":999,"REV_AT_EPOCH":1111,"BSTAR":0.0010409328,"MEAN_MOTION_DOT":0.00028525,"MEAN_MOTION_DDOT":0}]
